STARLINK-5340           
1 56506U 23065D   26067.71656414 -.00000127  00000+0  57037-5 0  9990
2 56506  43.0035 203.0212 0001289 264.8882  95.1813 15.02532681156627
QPS-SAR-8 (AMATERU-IV)  
1 60542U 24149CC  26068.70418071  .00008268  00000+0  61811-3 0  9990
2 60542  97.6699 148.7511 0003873  93.1500 267.0168 15.03026697 85328
